[{"OBJECT_NAME":"STARLINK-3955","OBJECT_ID":"2022-051AE","EPOCH":"2025-07-27T21:04:14.305440","MEAN_MOTION":15.08839281,"ECCENTRICITY":0.0001276,"INCLINATION":53.2174,"RA_OF_ASC_NODE":63.339,"ARG_OF_PERICENTER":82.8066,"MEAN_ANOMALY":277.3071,"EPHEMERIS_TYPE":0,"CLASSIFICATION_TYPE":"U","NORAD_CAT_ID":52561,"ELEMENT_SET_NO":999,"REV_AT_EPOCH":17743,"BSTAR":7.9489e-5,"MEAN_MOTION_DOT":9.77e-6,"MEAN_MOTION_DDOT":0},{"OBJECT_NAME":"STARLINK-3957","OBJECT_ID":"2022-051AF","EPOCH":"2025-07-27T22:54:51.583680","MEAN_MOTION":15.08841343,"ECCENTRICITY":0.0001283,"INCLINATION":53.2179,"RA_OF_ASC_NODE":47.9956,"ARG_OF_PERICENTER":84.8619,"MEAN_ANOMALY":275.252,"EPHEMERIS_TYPE":0,"CLASSIFICATION_TYPE":"U","NORAD_CAT_ID":52562,"ELEMENT_SET_NO":999,"REV_AT_EPOCH":17772,"BSTAR":5.8943e-5,"MEAN_MOTION_DOT":6.5e-6,"MEAN_MOTION_DDOT":0},{"OBJECT_NAME":"STARLINK-3942","OBJECT_ID":"2022-051AG","EPOCH":"2025-07-27T21:09:32.408640","MEAN_MOTION":15.08835192,"ECCENTRICITY":0.0001308,"INCLINATION":53.2174,"RA_OF_ASC_NODE":63.3247,"ARG_OF_PERICENTER":89.6017,"MEAN_ANOMALY":270.5126,"EPHEMERIS_TYPE":0,"CLASSIFICATION_TYPE":"U","NORAD_CAT_ID":52563,"ELEMENT_SET_NO":999,"REV_AT_EPOCH":17743,"BSTAR":3.9336e-6,"MEAN_MOTION_DOT":-2.25e-6,"MEAN_MOTION_DDOT":0},{"OBJECT_NAME":"STARLINK-3959","OBJECT_ID":"2022-051AH","EPOCH":"2025-07-28T01:46:28.118784","MEAN_MOTION":15.08843236,"ECCENTRICITY":0.000141,"INCLINATION":53.2183,"RA_OF_ASC_NODE":62.4704,"ARG_OF_PERICENTER":88.3944,"MEAN_ANOMALY":271.7209,"EPHEMERIS_TYPE":0,"CLASSIFICATION_TYPE":"U","NORAD_CAT_ID":52564,"ELEMENT_SET_NO":999,"REV_AT_EPOCH":17753,"BSTAR":1.1576e-5,"MEAN_MOTION_DOT":-1.04e-6,"MEAN_MOTION_DDOT":0},{"OBJECT_NAME":"STARLINK-3911","OBJECT_ID":"2022-051AJ","EPOCH":"2025-07-27T19:49:22.907712","MEAN_MOTION":15.08844899,"ECCENTRICITY":0.000138,"INCLINATION":53.2171,"RA_OF_ASC_NODE":48.5731,"ARG_OF_PERICENTER":87.4069,"MEAN_ANOMALY":272.7081,"EPHEMERIS_TYPE":0,"CLASSIFICATION_TYPE":"U","NORAD_CAT_ID":52565,"ELEMENT_SET_NO":999,"REV_AT_EPOCH":17763,"BSTAR":3.647e-5,"MEAN_MOTION_DOT":2.93e-6,"MEAN_MOTION_DDOT":0},{"OBJECT_NAME":"STARLINK-3938","OBJECT_ID":"2022-051AK","EPOCH":"2025-07-28T07:34:50.769696","MEAN_MOTION":15.08838627,"ECCENTRICITY":0.0001328,"INCLINATION":53.2179,"RA_OF_ASC_NODE":61.3762,"ARG_OF_PERICENTER":87.6678,"MEAN_ANOMALY":272.4466,"EPHEMERIS_TYPE":0,"CLASSIFICATION_TYPE":"U","NORAD_CAT_ID":52566,"ELEMENT_SET_NO":999,"REV_AT_EPOCH":17757,"BSTAR":2.7467e-6,"MEAN_MOTION_DOT":-2.44e-6,"MEAN_MOTION_DDOT":0},{"OBJECT_NAME":"STARLINK-3929","OBJECT_ID":"2022-051AL","EPOCH":"2025-07-28T02:00:20.248416","MEAN_MOTION":15.08838386,"ECCENTRICITY":0.0001404,"INCLINATION":53.2185,"RA_OF_ASC_NODE":47.4195,"ARG_OF_PERICENTER":86.9653,"MEAN_ANOMALY":273.15,"EPHEMERIS_TYPE":0,"CLASSIFICATION_TYPE":"U","NORAD_CAT_ID":52567,"ELEMENT_SET_NO":999,"REV_AT_EPOCH":17774,"BSTAR":1.5077e-7,"MEAN_MOTION_DOT":-2.86e-6,"MEAN_MOTION_DDOT":0},{"OBJECT_NAME":"STARLINK-3930","OBJECT_ID":"2022-051AM","EPOCH":"2025-07-27T20:58:16.873824","MEAN_MOTION":15.08840282,"ECCENTRICITY":0.0001395,"INCLINATION":53.2189,"RA_OF_ASC_NODE":48.3587,"ARG_OF_PERICENTER":85.628,"MEAN_ANOMALY":274.4871,"EPHEMERIS_TYPE":0,"CLASSIFICATION_TYPE":"U","NORAD_CAT_ID":52568,"ELEMENT_SET_NO":999,"REV_AT_EPOCH":17764,"BSTAR":3.6096e-5,"MEAN_MOTION_DOT":2.87e-6,"MEAN_MOTION_DDOT":0},{"OBJECT_NAME":"STARLINK-3927","OBJECT_ID":"2022-051AN","EPOCH":"2025-07-27T19:33:29.459520","MEAN_MOTION":15.08839024,"ECCENTRICITY":0.0001139,"INCLINATION":53.2171,"RA_OF_ASC_NODE":48.6241,"ARG_OF_PERICENTER":91.4217,"MEAN_ANOMALY":268.6906,"EPHEMERIS_TYPE":0,"CLASSIFICATION_TYPE":"U","NORAD_CAT_ID":52569,"ELEMENT_SET_NO":999,"REV_AT_EPOCH":17763,"BSTAR":7.6531e-5,"MEAN_MOTION_DOT":9.3e-6,"MEAN_MOTION_DDOT":0},{"OBJECT_NAME":"STARLINK-3901","OBJECT_ID":"2022-051AQ","EPOCH":"2025-07-27T21:03:34.653888","MEAN_MOTION":15.08833395,"ECCENTRICITY":0.0001508,"INCLINATION":53.2185,"RA_OF_ASC_NODE":48.3423,"ARG_OF_PERICENTER":88.5775,"MEAN_ANOMALY":271.5389,"EPHEMERIS_TYPE":0,"CLASSIFICATION_TYPE":"U","NORAD_CAT_ID":52574,"ELEMENT_SET_NO":999,"REV_AT_EPOCH":17764,"BSTAR":0.0001065,"MEAN_MOTION_DOT":1.407e-5,"MEAN_MOTION_DDOT":0},{"OBJECT_NAME":"STARLINK-3920","OBJECT_ID":"2022-051AR","EPOCH":"2025-07-28T14:00:01.999872","MEAN_MOTION":15.19794596,"ECCENTRICITY":0.000126,"INCLINATION":53.2184,"RA_OF_ASC_NODE":44.2038,"ARG_OF_PERICENTER":53.4229,"MEAN_ANOMALY":24.8323,"EPHEMERIS_TYPE":0,"CLASSIFICATION_TYPE":"U","NORAD_CAT_ID":52575,"ELEMENT_SET_NO":999,"REV_AT_EPOCH":17783,"BSTAR":0.0022715,"MEAN_MOTION_DOT":0.00049252,"MEAN_MOTION_DDOT":0},{"OBJECT_NAME":"STARLINK-3932","OBJECT_ID":"2022-051AS","EPOCH":"2025-07-27T20:38:28.272480","MEAN_MOTION":15.08837143,"ECCENTRICITY":0.0001349,"INCLINATION":53.2181,"RA_OF_ASC_NODE":48.4193,"ARG_OF_PERICENTER":92.9583,"MEAN_ANOMALY":267.1563,"EPHEMERIS_TYPE":0,"CLASSIFICATION_TYPE":"U","NORAD_CAT_ID":52576,"ELEMENT_SET_NO":999,"REV_AT_EPOCH":17764,"BSTAR":4.935e-5,"MEAN_MOTION_DOT":4.98e-6,"MEAN_MOTION_DDOT":0},{"OBJECT_NAME":"STARLINK-3836","OBJECT_ID":"2022-051AT","EPOCH":"2025-07-28T13:45:47.686176","MEAN_MOTION":15.08844394,"ECCENTRICITY":0.0001211,"INCLINATION":53.2183,"RA_OF_ASC_NODE":60.2199,"ARG_OF_PERICENTER":96.5551,"MEAN_ANOMALY":263.5579,"EPHEMERIS_TYPE":0,"CLASSIFICATION_TYPE":"U","NORAD_CAT_ID":52577,"ELEMENT_SET_NO":999,"REV_AT_EPOCH":17761,"BSTAR":-0.00028848,"MEAN_MOTION_DOT":-4.877e-5,"MEAN_MOTION_DDOT":0},{"OBJECT_NAME":"STARLINK-3833","OBJECT_ID":"2022-051AU","EPOCH":"2025-07-28T02:43:23.393280","MEAN_MOTION":15.08842274,"ECCENTRICITY":0.0001362,"INCLINATION":53.2182,"RA_OF_ASC_NODE":62.2842,"ARG_OF_PERICENTER":85.9744,"MEAN_ANOMALY":274.1403,"EPHEMERIS_TYPE":0,"CLASSIFICATION_TYPE":"U","NORAD_CAT_ID":52578,"ELEMENT_SET_NO":999,"REV_AT_EPOCH":17754,"BSTAR":5.0894e-5,"MEAN_MOTION_DOT":5.22e-6,"MEAN_MOTION_DDOT":0},{"OBJECT_NAME":"STARLINK-3893","OBJECT_ID":"2022-051AV","EPOCH":"2025-07-27T23:16:42.921408","MEAN_MOTION":15.08847777,"ECCENTRICITY":0.0001495,"INCLINATION":53.2186,"RA_OF_ASC_NODE":62.9321,"ARG_OF_PERICENTER":88.4667,"MEAN_ANOMALY":271.6496,"EPHEMERIS_TYPE":0,"CLASSIFICATION_TYPE":"U","NORAD_CAT_ID":52579,"ELEMENT_SET_NO":999,"REV_AT_EPOCH":17752,"BSTAR":-4.5765e-5,"MEAN_MOTION_DOT":-1.016e-5,"MEAN_MOTION_DDOT":0},{"OBJECT_NAME":"STARLINK-3919","OBJECT_ID":"2022-051AW","EPOCH":"2025-07-27T20:12:38.119104","MEAN_MOTION":15.08833468,"ECCENTRICITY":0.0001453,"INCLINATION":53.219,"RA_OF_ASC_NODE":63.5149,"ARG_OF_PERICENTER":101.0496,"MEAN_ANOMALY":259.0659,"EPHEMERIS_TYPE":0,"CLASSIFICATION_TYPE":"U","NORAD_CAT_ID":52580,"ELEMENT_SET_NO":999,"REV_AT_EPOCH":17743,"BSTAR":3.3246e-5,"MEAN_MOTION_DOT":2.41e-6,"MEAN_MOTION_DDOT":0},{"OBJECT_NAME":"STARLINK-3915","OBJECT_ID":"2022-051AX","EPOCH":"2025-07-27T20:31:47.482752","MEAN_MOTION":15.08833211,"ECCENTRICITY":0.0001335,"INCLINATION":53.2194,"RA_OF_ASC_NODE":48.4396,"ARG_OF_PERICENTER":97.6422,"MEAN_ANOMALY":262.4722,"EPHEMERIS_TYPE":0,"CLASSIFICATION_TYPE":"U","NORAD_CAT_ID":52581,"ELEMENT_SET_NO":999,"REV_AT_EPOCH":17764,"BSTAR":5.8068e-5,"MEAN_MOTION_DOT":6.36e-6,"MEAN_MOTION_DDOT":0}]
