STARLINK-3955           
1 52561U 22051AE  25208.87794335  .00000977  00000+0  79489-4 0  9995
2 52561  53.2174  63.3390 0001276  82.8066 277.3071 15.08839281177437
STARLINK-3957           
1 52562U 22051AF  25208.95476370  .00000650  00000+0  58943-4 0  9991
2 52562  53.2179  47.9956 0001283  84.8619 275.2520 15.08841343177723
STARLINK-3942           
1 52563U 22051AG  25208.88162510 -.00000225  00000+0  39336-5 0  9997
2 52563  53.2174  63.3247 0001308  89.6017 270.5126 15.08835192177430
STARLINK-3959           
1 52564U 22051AH  25209.07393656 -.00000104  00000+0  11576-4 0  9998
2 52564  53.2183  62.4704 0001410  88.3944 271.7209 15.08843236177532
STARLINK-3911           
1 52565U 22051AJ  25208.82595958  .00000293  00000+0  36470-4 0  9998
2 52565  53.2171  48.5731 0001380  87.4069 272.7081 15.08844899177635
STARLINK-3938           
1 52566U 22051AK  25209.31586539 -.00000244  00000+0  27467-5 0  9993
2 52566  53.2179  61.3762 0001328  87.6678 272.4466 15.08838627177570
STARLINK-3929           
1 52567U 22051AL  25209.08356769 -.00000286  00000+0  15077-6 0  9999
2 52567  53.2185  47.4195 0001404  86.9653 273.1500 15.08838386177741
STARLINK-3930           
1 52568U 22051AM  25208.87380641  .00000287  00000+0  36096-4 0  9994
2 52568  53.2189  48.3587 0001395  85.6280 274.4871 15.08840282177644
STARLINK-3927           
1 52569U 22051AN  25208.81492430  .00000930  00000+0  76531-4 0  9992
2 52569  53.2171  48.6241 0001139  91.4217 268.6906 15.08839024177632
STARLINK-3901           
1 52574U 22051AQ  25208.87748442  .00001407  00000+0  10650-3 0  9990
2 52574  53.2185  48.3423 0001508  88.5775 271.5389 15.08833395177642
STARLINK-3920           
1 52575U 22051AR  25209.58335648  .00049252  00000+0  22715-2 0  9994
2 52575  53.2184  44.2038 0001260  53.4229  24.8323 15.19794596177838
STARLINK-3932           
1 52576U 22051AS  25208.86004945  .00000498  00000+0  49350-4 0  9993
2 52576  53.2181  48.4193 0001349  92.9583 267.1563 15.08837143177644
STARLINK-3836           
1 52577U 22051AT  25209.57346859 -.00004877  00000+0 -28848-3 0  9991
2 52577  53.2183  60.2199 0001211  96.5551 263.5579 15.08844394177618
STARLINK-3833           
1 52578U 22051AU  25209.11346520  .00000522  00000+0  50894-4 0  9995
2 52578  53.2182  62.2842 0001362  85.9744 274.1403 15.08842274177549
STARLINK-3893           
1 52579U 22051AV  25208.96994122 -.00001016  00000+0 -45765-4 0  9997
2 52579  53.2186  62.9321 0001495  88.4667 271.6496 15.08847777177527
STARLINK-3919           
1 52580U 22051AW  25208.84210786  .00000241  00000+0  33246-4 0  9991
2 52580  53.2190  63.5149 0001453 101.0496 259.0659 15.08833468177438
STARLINK-3915           
1 52581U 22051AX  25208.85541068  .00000636  00000+0  58068-4 0  9990
2 52581  53.2194  48.4396 0001335  97.6422 262.4722 15.08833211177645
